[{"OBJECT_NAME":"STARLINK-34988","OBJECT_ID":"2025-194V","EPOCH":"2026-03-09T14:43:43.705056","MEAN_MOTION":15.01260784,"ECCENTRICITY":0.0002492,"INCLINATION":97.6042,"RA_OF_ASC_NODE":285.4211,"ARG_OF_PERICENTER":53.9876,"MEAN_ANOMALY":306.1579,"EPHEMERIS_TYPE":0,"CLASSIFICATION_TYPE":"U","NORAD_CAT_ID":65453,"ELEMENT_SET_NO":999,"REV_AT_EPOCH":2970,"BSTAR":0.00019946,"MEAN_MOTION_DOT":2.505e-5,"MEAN_MOTION_DDOT":0},{"OBJECT_NAME":"CZ-4B DEB","OBJECT_ID":"2008-053K","EPOCH":"2026-03-03T06:56:31.900704","MEAN_MOTION":15.04681815,"ECCENTRICITY":0.00115476,"INCLINATION":97.843,"RA_OF_ASC_NODE":88.8262,"ARG_OF_PERICENTER":63.9062,"MEAN_ANOMALY":296.3351,"EPHEMERIS_TYPE":0,"CLASSIFICATION_TYPE":"U","NORAD_CAT_ID":36289,"ELEMENT_SET_NO":999,"REV_AT_EPOCH":93214,"BSTAR":0.00025594062,"MEAN_MOTION_DOT":3.541e-5,"MEAN_MOTION_DDOT":0}]
